[{"OBJECT_NAME":"STARLINK-31521","OBJECT_ID":"2024-036T","EPOCH":"2026-03-09T06:15:05.633568","MEAN_MOTION":15.30193288,"ECCENTRICITY":0.00011502,"INCLINATION":53.1608,"RA_OF_ASC_NODE":80.3916,"ARG_OF_PERICENTER":77.6173,"MEAN_ANOMALY":282.4956,"EPHEMERIS_TYPE":0,"CLASSIFICATION_TYPE":"U","NORAD_CAT_ID":59015,"ELEMENT_SET_NO":999,"REV_AT_EPOCH":11525,"BSTAR":-5.110409e-6,"MEAN_MOTION_DOT":-5.1e-6,"MEAN_MOTION_DDOT":0},{"OBJECT_NAME":"NUSAT-44 (MARIA MITCHELL)","OBJECT_ID":"2024-043AA","EPOCH":"2026-03-09T22:12:18.524160","MEAN_MOTION":15.29764305,"ECCENTRICITY":0.0007331,"INCLINATION":97.5299,"RA_OF_ASC_NODE":207.7691,"ARG_OF_PERICENTER":214.9017,"MEAN_ANOMALY":145.1743,"EPHEMERIS_TYPE":0,"CLASSIFICATION_TYPE":"U","NORAD_CAT_ID":59122,"ELEMENT_SET_NO":999,"REV_AT_EPOCH":11209,"BSTAR":0.00061063193,"MEAN_MOTION_DOT":0.00017562,"MEAN_MOTION_DDOT":0}]
